STARLINK-36083          
1 66857U 25281K   25361.25002315 -.00110825  00000+0 -19076-2 0  9998
2 66857  43.0002  34.7617 0000929 259.3795  30.5864 15.50617099  3711
STARLINK-35118          
1 66858U 25281L   25361.25002315 -.00093906  00000+0 -16126-2 0  9992
2 66858  43.0002  34.7567 0001189 239.8225  52.0648 15.50606499  3504
STARLINK-35646          
1 66859U 25281M   25361.25002315 -.00058422  00000+0 -99728-3 0  9997
2 66859  43.0001  34.7522 0000845 258.6196  35.1957 15.50585045  3710
STARLINK-35987          
1 66860U 25281N   25361.25002315 -.00055531  00000+0 -94727-3 0  9991
2 66860  43.0001  34.7282 0001296 267.5093  35.8902 15.50584639  3727
STARLINK-35991          
1 66861U 25281P   25361.25002315  .00064156  00000+0  10930-2 0  9996
2 66861  43.0001  34.7435 0000847 264.4541  33.2185 15.50513375  3716
STARLINK-35974          
1 66862U 25281Q   25361.25002315 -.00123208  00000+0 -21237-2 0  9995
2 66862  43.0002  34.7475 0000939 262.1595  33.5439 15.50629860  3619
STARLINK-36134          
1 66863U 25281R   25361.25002315  .00088027  00000+0  14933-2 0  9998
2 66863  43.0000  34.7387 0000857 271.4309  28.1605 15.50506501  3717
STARLINK-36070          
1 66864U 25281S   25361.25002315 -.00234765  00000+0 -40949-2 0  9999
2 66864  43.0001  34.7335 0001031 250.7195  50.6566 15.50730349  3759
STARLINK-36117          
1 66865U 25281T   25361.25002315  .00042988  00000+0  73626-3 0  9991
2 66865  43.0001  34.7236 0001159 267.5896  37.7759 15.50514015  3722
STARLINK-36126          
1 66866U 25281U   25361.25002315 -.00218937  00000+0 -38129-2 0  9991
2 66866  43.0000  34.7191 0001035 246.7356  60.4044 15.50715047  3756
STARLINK-36101          
1 66867U 25281V   25361.25002315 -.00067137  00000+0 -11480-2 0  9997
2 66867  43.0000  34.7137 0000945 239.9790  69.1719 15.50589210  3556
STARLINK-36108          
1 66868U 25281W   25361.25002315 -.00072596  00000+0 -12425-2 0  9993
2 66868  43.0000  34.7085 0001017 266.3541  44.7103 15.50593050  3551
